FENGYUN 1C DEB          
1 30075U 99025QC  17345.84704689  .00000017  00000-0  47014-4 0  9994
2 30075  99.3369 302.3519 0092311 116.4366 298.7816 13.91646194554023
